GPS BIIR-2  (PRN 13)    
1 24876U 97035A   21288.06086570 -.00000001  00000-0  00000-0 0  9996
2 24876  55.4798 165.2475 0053806  54.2764 306.3006  2.00562564177730
GPS BIIR-4  (PRN 20)    
1 26360U 00025A   21288.76341785  .00000017  00000-0  00000-0 0  9994
2 26360  53.8658  88.9924 0055030 174.4396  60.4322  2.00563588157064
GPS BIIR-8  (PRN 16)    
1 27663U 03005A   21288.77315441 -.00000008  00000-0  00000-0 0  9994
2 27663  55.6873 282.7703 0121569  38.0782 181.1981  2.00552058137109
GPS BIIR-9  (PRN 21)    
1 27704U 03010A   21288.69832767 -.00000100  00000-0  00000-0 0  9995
2 27704  54.9201  33.2331 0243481 298.2412  84.7036  2.00568747135903
GPS BIIR-10 (PRN 22)    
1 28129U 03058A   21288.74997895  .00000021  00000-0  00000-0 0  9990
2 28129  53.6766  91.6320 0068894 308.0411  51.3618  2.00559042130588
GPS BIIR-11 (PRN 19)    
1 28190U 04009A   21288.43216108 -.00000082  00000-0  00000-0 0  9990
2 28190  56.1325 343.7005 0088236 112.8644  21.6474  2.00565817128738
GPS BIIR-13 (PRN 02)    
1 28474U 04045A   21288.36727059 -.00000097  00000-0  00000-0 0  9995
2 28474  55.2521  33.2945 0206158 274.6646  83.5770  2.00551820124224
GPS BIIRM-1 (PRN 17)    
1 28874U 05038A   21288.39719354 -.00000078  00000-0  00000-0 0  9993
2 28874  56.2097 341.1233 0139029 271.2807 221.4338  2.00563102117627
GPS BIIRM-2 (PRN 31)    
1 29486U 06042A   21288.70444579 -.00000047  00000-0  00000-0 0  9994
2 29486  54.7500 219.0137 0102068  16.6681 252.6629  2.00568628110180
GPS BIIRM-3 (PRN 12)    
1 29601U 06052A   21285.78758458  .00000017  00000-0  00000-0 0  9999
2 29601  55.6889 281.8178 0080397  69.8941 290.9788  2.00564317109146
GPS BIIRM-4 (PRN 15)    
1 32260U 07047A   21287.58616387  .00000013  00000-0  00000-0 0  9999
2 32260  53.2532 150.7334 0135756  59.0760 302.3358  2.00561216102585
GPS BIIRM-5 (PRN 29)    
1 32384U 07062A   21287.81889834 -.00000079  00000-0  00000-0 0  9991
2 32384  56.3211 341.8764 0017418 141.1114 157.2395  2.00576420101287
GPS BIIRM-6 (PRN 07)    
1 32711U 08012A   21288.00289259 -.00000042  00000-0  00000-0 0  9998
2 32711  54.5051 218.0327 0154665 228.5843 130.0766  2.00556449 99532
GPS BIIRM-8 (PRN 05)    
1 35752U 09043A   21288.39158934  .00000032  00000-0  00000-0 0  9996
2 35752  54.8910  95.4101 0058674  56.5210 238.3903  2.00571914 89149
GPS BIIF-1  (PRN 25)    
1 36585U 10022A   21287.30743899  .00000006  00000-0  00000-0 0  9991
2 36585  54.9655 277.4481 0096937  54.3317 299.3417  2.00552357 83356
GPS BIIF-2  (PRN 01)    
1 37753U 11036A   21288.29291330 -.00000089  00000-0  00000-0 0  9994
2 37753  56.4851  38.2652 0108951  50.2599  16.6125  2.00563837 75069
GPS BIIF-3  (PRN 24)    
1 38833U 12053A   21288.18318320 -.00000045  00000-0  00000-0 0  9993
2 38833  53.5562 213.4051 0116123  43.1284 317.7784  2.00558903 65229
GPS BIIF-4  (PRN 27)    
1 39166U 13023A   21288.04625532 -.00000072  00000-0  00000-0 0  9992
2 39166  55.8476 337.6051 0094223  35.0061 325.6679  2.00567230 61664
GPS BIIF-5  (PRN 30)    
1 39533U 14008A   21288.04535891 -.00000043  00000-0  00000-0 0  9990
2 39533  53.6562 218.8920 0054401 205.3976 154.3321  2.00567624 55469
GPS BIIF-6  (PRN 06)    
1 39741U 14026A   21287.32570202 -.00000083  00000-0  00000-0 0  9990
2 39741  56.4509  37.8299 0024581 297.9619  61.7942  2.00573278 54301
GPS BIIF-7  (PRN 09)    
1 40105U 14045A   21287.91576949  .00000010  00000-0  00000-0 0  9995
2 40105  54.6420 156.6087 0020492 105.6914 254.6171  2.00561097 51854
GPS BIIF-8  (PRN 03)    
1 40294U 14068A   21286.78774001  .00000033  00000-0  00000-0 0  9997
2 40294  55.6355  97.6933 0036833  55.2939 305.0844  2.00554156 50965
GPS BIIF-9  (PRN 26)    
1 40534U 15013A   21288.41937067 -.00000010  00000-0  00000-0 0  9996
2 40534  53.8693 274.8423 0062007  14.9955 345.1846  2.00567296 47616
GPS BIIF-10 (PRN 08)    
1 40730U 15033A   21288.57991766 -.00000071  00000-0  00000-0 0  9996
2 40730  55.3522 336.5287 0065920   0.9286 359.1426  2.00564727 45786
GPS BIIF-11 (PRN 10)    
1 41019U 15062A   21288.13191043  .00000037  00000-0  00000-0 0  9992
2 41019  55.6282  97.4780 0071880 213.4382 146.1384  2.00563283 43617
GPS BIIF-12 (PRN 32)    
1 41328U 16007A   21288.22432317  .00000013  00000-0  00000-0 0  9991
2 41328  54.8662 157.2067 0052822 225.1554 134.4967  2.00556917 41624
GPS BIII-1  (PRN 04)    
1 43873U 18109A   21288.77368569  .00000015  00000-0  00000-0 0  9992
2 43873  55.0471 159.5521 0014802 190.9957  98.4776  2.00561838 20862
GPS BIII-2  (PRN 18)    
1 44506U 19056A   21288.59306038 -.00000090  00000-0  00000-0 0  9995
2 44506  55.5545  38.8052 0020048 178.1510 242.2491  2.00567215 15865
GPS BIII-3  (PRN 23)    
1 45854U 20041A   21288.66312741  .00000034  00000-0  00000-0 0  9991
2 45854  55.3439  96.0688 0017166 163.7440 249.3808  2.00562972  9837
GPS BIII-4  (PRN 14)    
1 46826U 20078A   21288.36872001 -.00000006  00000-0  00000-0 0  9998
2 46826  54.7384 280.0333 0011599 190.9782 339.0538  2.00566743  7291
